{
    "links": {
        "self": "http://www.neowsapp.com/rest/v1/neo/3879299?api_key=iIulBulltgU6a56xZRHN4H3l9WmuAYTsLGpBGhQ2"
    },
    "id": "3879299",
    "neo_reference_id": "3879299",
    "name": "(2019 UU2)",
    "designation": "2019 UU2",
    "nasa_jpl_url": "http://ssd.jpl.nasa.gov/sbdb.cgi?sstr=3879299",
    "absolute_magnitude_h": 26.6,
    "estimated_diameter": {
        "kilometers": {
            "estimated_diameter_min": 0.0127219879,
            "estimated_diameter_max": 0.0284472297
        },
        "meters": {
            "estimated_diameter_min": 12.7219878539,
            "estimated_diameter_max": 28.4472296503
        },
        "miles": {
            "estimated_diameter_min": 0.0079050743,
            "estimated_diameter_max": 0.0176762835
        },
        "feet": {
            "estimated_diameter_min": 41.7388066307,
            "estimated_diameter_max": 93.330808926
        }
    },
    "is_potentially_hazardous_asteroid": false,
    "close_approach_data": [
        {
            "close_approach_date": "2019-10-13",
            "close_approach_date_full": "2019-Oct-13 18:35",
            "epoch_date_close_approach": 1570991700000,
            "relative_velocity": {
                "kilometers_per_second": "13.2510928349",
                "kilometers_per_hour": "47703.9342056753",
                "miles_per_hour": "29641.3695624097"
            },
            "miss_distance": {
                "astronomical": "0.0091814307",
                "lunar": "3.5715765423",
                "kilometers": "1373522.476272609",
                "miles": "853467.2909516442"
            },
            "orbiting_body": "Earth"
        },
        {
            "close_approach_date": "2019-10-14",
            "close_approach_date_full": "2019-Oct-14 02:43",
            "epoch_date_close_approach": 1571020980000,
            "relative_velocity": {
                "kilometers_per_second": "13.0796210444",
                "kilometers_per_hour": "47086.6357599354",
                "miles_per_hour": "29257.8043142776"
            },
            "miss_distance": {
                "astronomical": "0.0088597168",
                "lunar": "3.4464298352",
                "kilometers": "1325394.762083216",
                "miles": "823562.1160757408"
            },
            "orbiting_body": "Moon"
        },
        {
            "close_approach_date": "2093-06-10",
            "close_approach_date_full": "2093-Jun-10 16:01",
            "epoch_date_close_approach": 3895488060000,
            "relative_velocity": {
                "kilometers_per_second": "15.5625966507",
                "kilometers_per_hour": "56025.3479426809",
                "miles_per_hour": "34811.9724480508"
            },
            "miss_distance": {
                "astronomical": "0.2498632718",
                "lunar": "97.1968127302",
                "kilometers": "37379013.252511066",
                "miles": "23226241.8199660708"
            },
            "orbiting_body": "Earth"
        },
        {
            "close_approach_date": "2102-05-27",
            "close_approach_date_full": "2102-May-27 23:42",
            "epoch_date_close_approach": 4178216520000,
            "relative_velocity": {
                "kilometers_per_second": "23.7626909703",
                "kilometers_per_hour": "85545.6874929497",
                "miles_per_hour": "53154.7634313831"
            },
            "miss_distance": {
                "astronomical": "0.460722934",
                "lunar": "179.221221326",
                "kilometers": "68923169.58655058",
                "miles": "42826871.672654804"
            },
            "orbiting_body": "Earth"
        }
    ],
    "orbital_data": {
        "orbit_id": "7",
        "orbit_determination_date": "2019-11-11 08:02:16",
        "first_observation_date": "2019-10-21",
        "last_observation_date": "2019-11-03",
        "data_arc_in_days": 13,
        "observations_used": 25,
        "orbit_uncertainty": "7",
        "minimum_orbit_intersection": ".0048778",
        "jupiter_tisserand_invariant": "4.014",
        "epoch_osculation": "2459000.5",
        "eccentricity": ".489354074794212",
        "semi_major_axis": "1.711871045948586",
        "inclination": "12.96566191856862",
        "ascending_node_longitude": "21.49622264014412",
        "orbital_period": "818.0973701420988",
        "perihelion_distance": ".8741599740914157",
        "perihelion_argument": "307.1294275968818",
        "aphelion_distance": "2.549582117805756",
        "perihelion_time": "2458731.801418288544",
        "mean_anomaly": "118.2395799650626",
        "mean_motion": ".4400454189670235",
        "equinox": "J2000",
        "orbit_class": {
            "orbit_class_type": "APO",
            "orbit_class_description": "Near-Earth asteroid orbits which cross the Earth’s orbit similar to that of 1862 Apollo",
            "orbit_class_range": "a (semi-major axis) > 1.0 AU; q (perihelion) < 1.017 AU"
        }
    },
    "is_sentry_object": false
}